[{"OBJECT_NAME":"STARLINK-1931","OBJECT_ID":"2020-074BD","EPOCH":"2026-03-09T21:13:00.539328","MEAN_MOTION":15.65028532,"ECCENTRICITY":0.00014438,"INCLINATION":53.0448,"RA_OF_ASC_NODE":282.2511,"ARG_OF_PERICENTER":17.7174,"MEAN_ANOMALY":342.3891,"EPHEMERIS_TYPE":0,"CLASSIFICATION_TYPE":"U","NORAD_CAT_ID":46790,"ELEMENT_SET_NO":999,"REV_AT_EPOCH":29724,"BSTAR":0.0009294565,"MEAN_MOTION_DOT":0.00093618,"MEAN_MOTION_DDOT":0},{"OBJECT_NAME":"STARLINK-1997","OBJECT_ID":"2021-009AW","EPOCH":"2026-03-09T04:35:42.379872","MEAN_MOTION":15.65371182,"ECCENTRICITY":0.00077498,"INCLINATION":53.0432,"RA_OF_ASC_NODE":2.865,"ARG_OF_PERICENTER":83.1851,"MEAN_ANOMALY":277.0045,"EPHEMERIS_TYPE":0,"CLASSIFICATION_TYPE":"U","NORAD_CAT_ID":47592,"ELEMENT_SET_NO":999,"REV_AT_EPOCH":28101,"BSTAR":0.00091771291,"MEAN_MOTION_DOT":0.00093829,"MEAN_MOTION_DDOT":0}]
